NORAD_CAT_ID,OBJECT_NAME,OBJECT_TYPE,EPOCH,MEAN_MOTION,ECCENTRICITY,INCLINATION,RA_OF_ASC_NODE,ARG_OF_PERICENTER,MEAN_ANOMALY,BSTAR,MEAN_MOTION_DOT,MEAN_MOTION_DDOT,TLE_LINE0,TLE_LINE1,TLE_LINE2,SEMIMAJOR_AXIS,PERIOD,APOGEE,PERIGEE,DECAYED
53539.0,STARLINK-4123,PAYLOAD,2022-10-15 06:00:00,15.08830616,0.0001645,53.218,247.1521,49.1579,295.1785,0.00058084,8.966e-05,0.0,0 STARLINK-4123,1 53539U 22101N   22288.25001157  .00008966  00000-0  58084-3 0  9991,2 53539  53.2180 247.1521 0001645  49.1579 295.1785 15.08830616  8754,6917.909000000002,95.438,540.9119999999998,538.636,0.0
53539.0,STARLINK-4123,PAYLOAD,2022-10-15 14:00:01,15.0885382,0.0001460999999999,53.2177,245.6456,58.7205,297.2535,-0.0022408,-0.00035787,0.0,0 STARLINK-4123,1 53539U 22101N   22288.58334491 -.00035787  00000-0 -22408-2 0  9990,2 53539  53.2177 245.6456 0001461  58.7205 297.2535 15.08853820  8802,6917.8380000000025,95.437,540.714,538.692,0.0
53539.0,STARLINK-4123,PAYLOAD,2022-10-15 22:00:01,15.08847777,0.0001411,53.2178,244.149,65.5971,302.0366,-0.0028975999999999,-0.00046118,0.0,0 STARLINK-4123,1 53539U 22101N   22288.91668981 -.00046118  00000-0 -28976-2 0  9997,2 53539  53.2178 244.1490 0001411  65.5971 302.0366 15.08847777  1305,6917.857,95.437,540.698,538.746,0.0
53539.0,STARLINK-4123,PAYLOAD,2022-10-16 14:00:01,15.08822083,0.0001511,53.2171,241.1569,63.3215,327.383,-0.00014599,-2.609e-05,0.0,0 STARLINK-4123,1 53539U 22101N   22289.58334491 -.00002609  00000-0 -14599-3 0  9991,2 53539  53.2171 241.1569 0001511  63.3215 327.3830 15.08822083  8957,6917.935,95.439,540.845,538.755,0.0
53539.0,STARLINK-4123,PAYLOAD,2022-10-16 22:00:00,15.0883809,0.0001491,53.2171,239.6617,69.2759,332.9956,0.0010101,0.00015823,0.0,0 STARLINK-4123,1 53539U 22101N   22289.91667824  .00015823  00000-0  10101-2 0  9991,2 53539  53.2171 239.6617 0001491  69.2759 332.9956 15.08838090  1306,6917.886,95.438,540.783,538.72,0.0
53539.0,STARLINK-4123,PAYLOAD,2022-10-17 06:00:00,15.0883997,0.0001595,53.2169,238.1676,59.8636,354.0027,-4.3687e-06,-3.58e-06,0.0,0 STARLINK-4123,1 53539U 22101N   22290.25001157 -.00000358  00000-0 -43687-5 0  9998,2 53539  53.2169 238.1676 0001595  59.8636 354.0027 15.08839970  9058,6917.88,95.438,540.849,538.6419999999998,0.0
53539.0,STARLINK-4123,PAYLOAD,2022-10-17 14:00:01,15.08840697,0.0001429,53.217,236.6692,64.2017,1.2779,0.00050917,7.825e-05,0.0,0 STARLINK-4123,1 53539U 22101N   22290.58334491  .00007825  00000-0  50917-3 0  9990,2 53539  53.2170 236.6692 0001429  64.2017   1.2779 15.08840697  1303,6917.878000000002,95.438,540.732,538.755,0.0
53539.0,STARLINK-4123,PAYLOAD,2022-10-17 22:00:00,15.08877137,0.0001478,53.2167,235.1729,68.9441,8.1242,-0.0024687,-0.00039403,0.0,0 STARLINK-4123,1 53539U 22101N   22290.91667824 -.00039403  00000-0 -24687-2 0  9999,2 53539  53.2167 235.1729 0001478  68.9441   8.1242 15.08877137  1300,6917.767,95.435,540.654,538.609,0.0
53539.0,STARLINK-4123,PAYLOAD,2022-10-18 14:00:01,15.08818871,0.0001452,53.2165,232.179,64.0634,36.1844,0.00058787,9.075e-05,0.0,0 STARLINK-4123,1 53539U 22101N   22291.58334491  .00009075  00000-0  58787-3 0  9993,2 53539  53.2165 232.1790 0001452  64.0634  36.1844 15.08818871  9257,6917.945,95.439,540.814,538.805,0.0
53539.0,STARLINK-4123,PAYLOAD,2022-10-18 22:00:00,15.08842932,0.0001512,53.2165,230.6826,66.3432,45.4705,-3.6116e-05,-8.63e-06,0.0,0 STARLINK-4123,1 53539U 22101N   22291.91667824 -.00000863  00000-0 -36116-4 0  9990,2 53539  53.2165 230.6826 0001512  66.3432  45.4705 15.08842932  1300,6917.871,95.437,540.7819999999998,538.69,0.0
53539.0,STARLINK-4123,PAYLOAD,2022-10-19 14:00:01,15.08827432,0.0001408,53.2168,227.6898,61.9311,73.0789,0.001119,0.0001756,0.0,0 STARLINK-4123,1 53539U 22101N   22292.58334491  .00017560  00000-0  11190-2 0  9998,2 53539  53.2168 227.6898 0001408  61.9311  73.0789 15.08827432  1306,6917.919,95.438,540.758,538.81,0.0
53539.0,STARLINK-4123,PAYLOAD,2022-10-19 22:00:00,15.08860223,0.0001476999999999,53.217,226.1935,64.5725,82.0202,-0.00028558,-4.833e-05,0.0,0 STARLINK-4123,1 53539U 22101N   22292.91667824 -.00004833  00000-0 -28558-3 0  9992,2 53539  53.2170 226.1935 0001477  64.5725  82.0202 15.08860223  9458,6917.819,95.436,540.705,538.6619999999998,0.0
53539.0,STARLINK-4123,PAYLOAD,2022-10-20 14:00:01,15.08824471,0.0001434,53.2175,223.202,61.8037,108.0062,-0.00016876,-2.972e-05,0.0,0 STARLINK-4123,1 53539U 22101N   22293.58334491 -.00002972  00000-0 -16876-3 0  9999,2 53539  53.2175 223.2020 0001434  61.8037 108.0062 15.08824471  9554,6917.928000000001,95.439,540.785,538.8009999999998,0.0
53539.0,STARLINK-4123,PAYLOAD,2022-10-20 22:00:00,15.08843723,0.0001585999999999,53.2177,221.7058,61.8931,119.5367,-0.00053946,-8.864e-05,0.0,0 STARLINK-4123,1 53539U 22101N   22293.91667824 -.00008864  00000-0 -53946-3 0  9990,2 53539  53.2177 221.7058 0001586  61.8931 119.5367 15.08843723  1302,6917.869000000002,95.437,540.831,538.637,0.0
53539.0,STARLINK-4123,PAYLOAD,2022-10-21 14:00:01,15.08845301,0.0001349,53.2179,218.7123,56.4328,148.2255,-0.0011012,-0.00017773,0.0,0 STARLINK-4123,1 53539U 22101N   22294.58334491 -.00017773  00000-0 -11012-2 0  9991,2 53539  53.2179 218.7123 0001349  56.4328 148.2255 15.08845301  1309,6917.864000000001,95.437,540.6619999999998,538.7959999999998,0.0
53539.0,STARLINK-4123,PAYLOAD,2022-10-21 22:00:00,15.08854053,0.0001450999999999,53.2182,217.2155,57.6443,158.5971,-0.0029592,-0.00047094,0.0,0 STARLINK-4123,1 53539U 22101N   22294.91667824 -.00047094  00000-0 -29592-2 0  9998,2 53539  53.2182 217.2155 0001451  57.6443 158.5971 15.08854053  1300,6917.837,95.437,540.706,538.6990000000002,0.0
53539.0,STARLINK-4123,PAYLOAD,2022-10-22 14:00:01,15.08806285,0.0001349,53.2182,214.2223,55.2116,184.1968,0.002226,0.00035284,0.0,0 STARLINK-4123,1 53539U 22101N   22295.58334491  .00035284  00000-0  22260-2 0  9994,2 53539  53.2182 214.2223 0001349  55.2116 184.1968 15.08806285  1305,6917.983,95.44,540.7819999999998,538.915,0.0
53539.0,STARLINK-4123,PAYLOAD,2022-10-22 22:00:00,15.08854828,0.0001418,53.2184,212.7269,56.9334,194.0478,-0.00040016,-6.653e-05,0.0,0 STARLINK-4123,1 53539U 22101N   22295.91667824 -.00006653  00000-0 -40016-3 0  9990,2 53539  53.2184 212.7269 0001418  56.9334 194.0478 15.08854828  9903,6917.835,95.437,540.681,538.719,0.0
53539.0,STARLINK-4123,PAYLOAD,2022-10-23 14:00:01,15.08825195,0.0001450999999999,53.2181,209.7335,59.7208,214.5045,0.0031013,0.00049395,0.0,0 STARLINK-4123,1 53539U 22101N   22296.58334491  .00049395  00000-0  31013-2 0  9999,2 53539  53.2181 209.7335 0001451  59.7208 214.5045 15.08825195  1307,6917.926,95.438,540.794,538.7869999999998,0.0
53539.0,STARLINK-4123,PAYLOAD,2022-10-23 22:00:00,15.08887271,0.0001443,53.2181,208.2381,59.5217,226.2966,-0.0052577,-0.00083107,0.0,0 STARLINK-4123,1 53539U 22101N   22296.91667824 -.00083107  00000-0 -52577-2 0  9994,2 53539  53.2181 208.2381 0001443  59.5217 226.2966 15.08887271 10058,6917.736,95.435,540.599,538.6030000000002,0.0
53539.0,STARLINK-4123,PAYLOAD,2022-10-24 14:00:01,15.08759812,0.0001446,53.2177,205.2448,60.7527,248.2532,0.0032269,0.00051329,0.0,0 STARLINK-4123,1 53539U 22101N   22297.58334491  .00051329  00000-0  32269-2 0  9994,2 53539  53.2177 205.2448 0001446  60.7527 248.2532 15.08759812  1305,6918.126,95.443,540.991,538.99,0.0
53539.0,STARLINK-4123,PAYLOAD,2022-10-24 22:00:00,15.08795038,0.0001517,53.2176,203.7496,58.6909,261.8344,0.0011344,0.0001779,0.0,0 STARLINK-4123,1 53539U 22101N   22297.91667824  .00017790  00000-0  11344-2 0  9995,2 53539  53.2176 203.7496 0001517  58.6909 261.8344 15.08795038  1301,6918.018,95.44,540.932,538.8330000000002,0.0
53539.0,STARLINK-4123,PAYLOAD,2022-10-25 14:00:01,15.08796632,0.0001496,53.2171,200.7562,61.0273,282.6344,0.0021114,0.00033435,0.0,0 STARLINK-4123,1 53539U 22101N   22298.58334491  .00033435  00000-0  21114-2 0  9990,2 53539  53.2171 200.7562 0001496  61.0273 282.6344 15.08796632  1307,6918.013000000001,95.44,540.913,538.8430000000002,0.0
53539.0,STARLINK-4123,PAYLOAD,2022-10-25 22:00:01,15.08833025,0.0001645,53.2171,199.261,59.2502,296.0308,-0.0011550999999999,-0.00018621,0.0,0 STARLINK-4123,1 53539U 22101N   22298.91668981 -.00018621  00000-0 -11551-2 0  9997,2 53539  53.2171 199.2610 0001645  59.2502 296.0308 15.08833025  1300,6917.901999999999,95.438,540.905,538.629,0.0
53539.0,STARLINK-4123,PAYLOAD,2022-10-26 14:00:01,15.0881448,0.0001592,53.2168,196.2673,62.0681,316.3243,0.0036641999999999,0.00058471,0.0,0 STARLINK-4123,1 53539U 22101N   22299.58334491  .00058471  00000-0  36642-2 0  9990,2 53539  53.2168 196.2673 0001592  62.0681 316.3243 15.08814480  1301,6917.958000000001,95.439,540.925,538.722,0.0
53539.0,STARLINK-4123,PAYLOAD,2022-10-26 22:00:00,15.08861797,0.0001742,53.2169,194.7723,59.2345,330.7426,-0.0011535,-0.0001861,0.0,0 STARLINK-4123,1 53539U 22101N   22299.91667824 -.00018610  00000-0 -11535-2 0  9993,2 53539  53.2169 194.7723 0001742  59.2345 330.7426 15.08861797  1309,6917.814,95.436,540.884,538.474,0.0
53539.0,STARLINK-4123,PAYLOAD,2022-10-27 06:00:00,15.08873397,0.0001748,53.2166,193.2762,53.2393,348.3498,-0.0015179,-0.00024386,0.0,0 STARLINK-4123,1 53539U 22101N   22300.25001157 -.00024386  00000-0 -15179-2 0  9999,2 53539  53.2166 193.2762 0001748  53.2393 348.3498 15.08873397 10567,6917.778,95.435,540.8530000000002,538.434,0.0
53539.0,STARLINK-4123,PAYLOAD,2022-10-27 14:00:01,15.088211800000002,0.0001575,53.2168,191.7781,60.1921,353.096,0.0037901,0.00060518,0.0,0 STARLINK-4123,1 53539U 22101N   22300.58335648  .00060518  00000-0  37901-2 0  9992,2 53539  53.2168 191.7781 0001575  60.1921 353.0960 15.08821180  1307,6917.938,95.439,540.8919999999998,538.7130000000002,0.0
53539.0,STARLINK-4123,PAYLOAD,2022-10-27 22:00:00,15.08880183,0.0001708,53.2168,190.2832,56.7091,8.1111,-0.0027116999999999,-0.00043234,0.0,0 STARLINK-4123,1 53539U 22101N   22300.91667824 -.00043234  00000-0 -27117-2 0  9999,2 53539  53.2168 190.2832 0001708  56.7091   8.1111 15.08880183  1309,6917.7580000000025,95.435,540.804,538.441,0.0
